OBJECT_NAME,OBJECT_ID,EPOCH,MEAN_MOTION,ECCENTRICITY,INCLINATION,RA_OF_ASC_NODE,ARG_OF_PERICENTER,MEAN_ANOMALY,EPHEMERIS_TYPE,CLASSIFICATION_TYPE,NORAD_CAT_ID,ELEMENT_SET_NO,REV_AT_EPOCH,BSTAR,MEAN_MOTION_DOT,MEAN_MOTION_DDOT
STARLINK-36360,2026-063Y,2026-07-11T20:31:32.088864,15.33452080,.0000352,97.2866,334.7422,67.4001,292.7279,0,U,68402,999,1692,.58906E-3,.18994E-3,0
STARLINK-37218,2026-063Z,2026-07-11T20:12:03.536640,15.36986333,.0000472,97.2846,337.6486,170.6721,189.4533,0,U,68403,999,1711,.31984E-3,.11495E-3,0
STARLINK-37262,2026-068A,2026-07-11T05:33:37.026720,15.34393735,.00009901,53.1575,267.2210,69.8832,290.2277,0,U,68508,999,1597,.41313667E-3,.13605E-3,0
STARLINK-36292,2026-068B,2026-07-11T06:05:19.357728,15.34393349,.00010456,53.1577,272.4495,75.2680,284.8439,0,U,68509,999,1590,.4581078E-3,.1513E-3,0
STARLINK-37260,2026-068C,2026-07-11T13:35:24.954720,15.34428285,.0001535,53.1575,269.3818,63.7424,296.3736,0,U,68510,999,1597,.44039E-3,.14545E-3,0
STARLINK-37280,2026-068D,2026-07-11T12:37:09.244416,15.34389541,.00012015,53.1590,265.5051,77.4822,282.6315,0,U,68511,999,1602,.33790765E-3,.11054E-3,0
STARLINK-37286,2026-068E,2026-07-11T04:23:55.981248,15.34391966,.00012982,53.1577,266.9289,73.4896,286.6250,0,U,68512,999,1597,.52309571E-3,.17334E-3,0
STARLINK-36250,2026-068F,2026-07-11T12:26:33.915840,15.34394394,.00010045,53.1584,271.2635,72.6908,287.4204,0,U,68513,999,1594,.4643127E-3,.15341E-3,0
STARLINK-37251,2026-068G,2026-07-11T11:59:25.430496,15.34396747,.00011941,53.1587,271.8728,45.2595,314.8505,0,U,68514,999,1593,.46789215E-3,.15463E-3,0
STARLINK-36293,2026-068H,2026-07-11T13:24:08.019360,15.34392554,.0001616,53.1581,271.5188,51.0662,309.0485,0,U,68515,999,1594,.33696E-3,.11023E-3,0
STARLINK-36290,2026-068J,2026-07-11T12:35:39.317568,15.34418996,.00007235,53.1566,271.2940,70.4566,289.6514,0,U,68516,999,1594,.73897442E-3,.24689E-3,0
STARLINK-36298,2026-068K,2026-07-11T19:30:13.475808,15.34380355,.0001291,53.1586,270.2732,119.4393,240.6738,0,U,68517,999,1598,.56482E-3,.18743E-3,0
STARLINK-36857,2026-068L,2026-07-10T17:59:11.132160,15.34405097,.00017068,53.1588,274.9957,153.9860,206.1228,0,U,68518,999,1582,.46305046E-3,.15303E-3,0
STARLINK-36326,2026-068M,2026-07-11T05:04:51.472704,15.34413334,.00012625,53.1587,272.9042,100.3005,259.8140,0,U,68519,999,1589,.54353368E-3,.1804E-3,0
STARLINK-37126,2026-068N,2026-07-11T12:38:41.848800,15.34491935,.00033198,53.1575,271.3110,32.8963,327.2246,0,U,68520,999,1594,.15283781E-2,.51776E-3,0
STARLINK-36347,2026-068P,2026-07-11T13:12:49.400928,15.34396589,.0001458,53.1583,273.5909,58.5291,301.5854,0,U,68521,999,1591,.50607E-3,.16758E-3,0
STARLINK-36322,2026-068Q,2026-07-10T16:37:30.767808,15.34395449,.00010081,53.1594,275.3456,98.5706,261.5411,0,U,68522,999,1581,.71792653E-3,.23954E-3,0
STARLINK-37208,2026-068R,2026-07-11T12:23:32.153568,15.34395794,.00006867,53.1578,271.2463,67.3757,292.7318,0,U,68523,999,1594,.46152838E-3,.15247E-3,0
STARLINK-36302,2026-068S,2026-07-10T18:20:23.839584,15.34394622,.00012223,53.1581,275.0895,126.2145,233.8971,0,U,68524,999,1582,.7737882E-3,.25853E-3,0
STARLINK-36311,2026-068T,2026-07-11T13:02:56.913792,15.34420772,.00009912,53.1609,271.4241,48.5994,311.5094,0,U,68525,999,1594,.99950844E-3,.33567E-3,0
STARLINK-37178,2026-068U,2026-07-11T04:35:52.324512,15.49335290,.0001467,53.1576,269.2151,51.3724,308.7416,0,U,68526,999,1593,.73107479E-3,.4046E-3,0
STARLINK-37248,2026-068V,2026-07-10T18:13:29.869536,15.34396290,.00009865,53.1585,272.8631,76.8798,283.2315,0,U,68527,999,1585,-.48414724E-4,-.2011E-4,0
STARLINK-37241,2026-068W,2026-07-10T17:59:59.987904,15.34411038,.00010258,53.1582,277.1233,100.8115,259.3003,0,U,68528,999,1579,.74978972E-3,.2505E-3,0
STARLINK-37244,2026-068X,2026-07-11T05:32:07.591488,15.34394138,.00012704,53.1572,273.0260,77.5825,282.5319,0,U,68529,999,1589,.69202309E-3,.23073E-3,0
STARLINK-36285,2026-068Y,2026-07-11T19:09:49.504032,15.34389849,.0001042,53.1579,272.2916,94.2059,265.9062,0,U,68530,999,1595,.28194E-3,.9158E-4,0
STARLINK-36294,2026-068Z,2026-07-11T13:03:44.476992,15.34389002,.0001676,53.1597,273.5514,40.2971,319.8155,0,U,68531,999,1591,.58598E-3,.19467E-3,0
STARLINK-36249,2026-068AA,2026-07-11T13:18:04.532832,15.34393080,.0001497,53.1585,271.4887,82.5099,277.6073,0,U,68532,999,1594,.50133E-3,.16596E-3,0
STARLINK-36252,2026-068AB,2026-07-11T11:35:11.331456,15.34391900,.0001138,53.1580,271.7428,98.1268,261.9864,0,U,68533,999,1593,.55738211E-3,.18497E-3,0
