STARLINK-36360          
1 68402U 26063Y   26192.85523252  .00018994  00000+0  58906-3 0  9990
2 68402  97.2866 334.7422 0000351  67.4001 292.7279 15.33452080 16929
STARLINK-37218          
1 68403U 26063Z   26192.84170761  .00011495  00000+0  31984-3 0  9999
2 68403  97.2846 337.6486 0000471 170.6721 189.4533 15.36986333 17112
STARLINK-37262          
1 68508U 26068A   26192.23167855  .00013605  00000+0  41314-3 0  9996
2 68508  53.1575 267.2210 0000990  69.8832 290.2277 15.34393735 15973
STARLINK-36292          
1 68509U 26068B   26192.25369627  .00015130  00000+0  45811-3 0  9991
2 68509  53.1577 272.4495 0001045  75.2680 284.8439 15.34393349 15906
STARLINK-37260          
1 68510U 26068C   26192.56626106  .00014545  00000+0  44039-3 0  9995
2 68510  53.1575 269.3818 0001534  63.7424 296.3736 15.34428285 15974
STARLINK-37280          
1 68511U 26068D   26192.52580144  .00011054  00000+0  33791-3 0  9998
2 68511  53.1590 265.5051 0001201  77.4822 282.6315 15.34389541 16023
STARLINK-37286          
1 68512U 26068E   26192.18328682  .00017334  00000+0  52310-3 0  9993
2 68512  53.1577 266.9289 0001298  73.4896 286.6250 15.34391966 15979
STARLINK-36250          
1 68513U 26068F   26192.51844810  .00015341  00000+0  46431-3 0  9990
2 68513  53.1584 271.2635 0001004  72.6908 287.4204 15.34394394 15945
STARLINK-37251          
1 68514U 26068G   26192.49959989  .00015463  00000+0  46789-3 0  9993
2 68514  53.1587 271.8728 0001194  45.2595 314.8505 15.34396747 15938
STARLINK-36293          
1 68515U 26068H   26192.55842615  .00011023  00000+0  33696-3 0  9999
2 68515  53.1581 271.5188 0001616  51.0662 309.0485 15.34392554 15945
STARLINK-36290          
1 68516U 26068J   26192.52476062  .00024689  00000+0  73897-3 0  9995
2 68516  53.1566 271.2940 0000723  70.4566 289.6514 15.34418996 15943
STARLINK-36298          
1 68517U 26068K   26192.81265598  .00018743  00000+0  56482-3 0  9993
2 68517  53.1586 270.2732 0001290 119.4393 240.6738 15.34380355 15982
STARLINK-36857          
1 68518U 26068L   26191.74943440  .00015303  00000+0  46305-3 0  9996
2 68518  53.1588 274.9957 0001706 153.9860 206.1228 15.34405097 15824
STARLINK-36326          
1 68519U 26068M   26192.21170686  .00018040  00000+0  54353-3 0  9997
2 68519  53.1587 272.9042 0001262 100.3005 259.8140 15.34413334 15899
STARLINK-37126          
1 68520U 26068N   26192.52687325  .00051776  00000+0  15284-2 0  9998
2 68520  53.1575 271.3110 0003319  32.8963 327.2246 15.34491935 15940
STARLINK-36347          
1 68521U 26068P   26192.55057178  .00016758  00000+0  50607-3 0  9999
2 68521  53.1583 273.5909 0001458  58.5291 301.5854 15.34396589 15917
STARLINK-36322          
1 68522U 26068Q   26191.69271722  .00023954  00000+0  71793-3 0  9992
2 68522  53.1594 275.3456 0001008  98.5706 261.5411 15.34395449 15810
STARLINK-37208          
1 68523U 26068R   26192.51634437  .00015247  00000+0  46153-3 0  9999
2 68523  53.1578 271.2463 0000686  67.3757 292.7318 15.34395794 15946
STARLINK-36302          
1 68524U 26068S   26191.76416481  .00025853  00000+0  77379-3 0  9991
2 68524  53.1581 275.0895 0001222 126.2145 233.8971 15.34394622 15822
STARLINK-36311          
1 68525U 26068T   26192.54371428  .00033567  00000+0  99951-3 0  9991
2 68525  53.1609 271.4241 0000991  48.5994 311.5094 15.34420772 15948
STARLINK-37178          
1 68526U 26068U   26192.19157783  .00040460  00000+0  73107-3 0  9994
2 68526  53.1576 269.2151 0001467  51.3724 308.7416 15.49335290 15930
STARLINK-37248          
1 68527U 26068V   26191.75937349 -.00002011  00000+0 -48415-4 0  9997
2 68527  53.1585 272.8631 0000986  76.8798 283.2315 15.34396290 15859
STARLINK-37241          
1 68528U 26068W   26191.74999986  .00025050  00000+0  74979-3 0  9991
2 68528  53.1582 277.1233 0001025 100.8115 259.3003 15.34411038 15798
STARLINK-37244          
1 68529U 26068X   26192.23064342  .00023073  00000+0  69202-3 0  9992
2 68529  53.1572 273.0260 0001270  77.5825 282.5319 15.34394138 15893
STARLINK-36285          
1 68530U 26068Y   26192.79848964  .00009158  00000+0  28194-3 0  9998
2 68530  53.1579 272.2916 0001042  94.2059 265.9062 15.34389849 15953
STARLINK-36294          
1 68531U 26068Z   26192.54426479  .00019467  00000+0  58598-3 0  9990
2 68531  53.1597 273.5514 0001676  40.2971 319.8155 15.34389002 15918
STARLINK-36249          
1 68532U 26068AA  26192.55421914  .00016596  00000+0  50133-3 0  9998
2 68532  53.1585 271.4887 0001497  82.5099 277.6073 15.34393080 15941
STARLINK-36252          
1 68533U 26068AB  26192.48277004  .00018497  00000+0  55738-3 0  9998
2 68533  53.1580 271.7428 0001138  98.1268 261.9864 15.34391900 15936
